[
    {
        "Altitude(m)": 711128.4536564505,
        "Argument of Periapsis(deg)": 0.006834072711976239,
        "Eccentricity": 0.0,
        "Inclination(deg)": 45.0,
        "Latitude(deg)": -28.511000526546923,
        "Longitude(deg)": -158.15529353800594,
        "Mean Anomaly(deg)": -42.170970011511514,
        "RAAN(deg)": 334.9935488351251,
        "Satellite Name": "Constellation 1 1493",
        "Satellite Number": 1493,
        "Semi-Major Axis(m)": 7083131.272910544,
        "Time(s)": 114
    },
    {
        "Altitude(m)": 711114.6411725,
        "Argument of Periapsis(deg)": 0.006894020718221645,
        "Eccentricity": 0.0,
        "Inclination(deg)": 45.0,
        "Latitude(deg)": -28.474763925828555,
        "Longitude(deg)": -158.1040937232263,
        "Mean Anomaly(deg)": -42.110268871261525,
        "RAAN(deg)": 334.99349224595954,
        "Satellite Name": "Constellation 1 1493",
        "Satellite Number": 1493,
        "Semi-Major Axis(m)": 7083131.272910544,
        "Time(s)": 115
    },
    {
        "Altitude(m)": 711100.8266680604,
        "Argument of Periapsis(deg)": 0.006953968724467052,
        "Eccentricity": 0.0,
        "Inclination(deg)": 45.0,
        "Latitude(deg)": -28.438504579940087,
        "Longitude(deg)": -158.05293150736887,
        "Mean Anomaly(deg)": -42.04956773101159,
        "RAAN(deg)": 334.99343565679396,
        "Satellite Name": "Constellation 1 1493",
        "Satellite Number": 1493,
        "Semi-Major Axis(m)": 7083131.272910544,
        "Time(s)": 116
    },
    {
        "Altitude(m)": 711087.0101911672,
        "Argument of Periapsis(deg)": 0.007013916730712457,
        "Eccentricity": 0.0,
        "Inclination(deg)": 45.0,
        "Latitude(deg)": -28.40222253764864,
        "Longitude(deg)": -158.00180683137245,
        "Mean Anomaly(deg)": -41.98886659076175,
        "RAAN(deg)": 334.9933790676284,
        "Satellite Name": "Constellation 1 1493",
        "Satellite Number": 1493,
        "Semi-Major Axis(m)": 7083131.272910544,
        "Time(s)": 117
    },
    {
        "Altitude(m)": 711073.1917898506,
        "Argument of Periapsis(deg)": 0.007073864736957864,
        "Eccentricity": 0.0,
        "Inclination(deg)": 45.0,
        "Latitude(deg)": -28.36591784765157,
        "Longitude(deg)": -157.9507196361437,
        "Mean Anomaly(deg)": -41.92816545051186,
        "RAAN(deg)": 334.9933224784628,
        "Satellite Name": "Constellation 1 1493",
        "Satellite Number": 1493,
        "Semi-Major Axis(m)": 7083131.272910544,
        "Time(s)": 118
    },
    {
        "Altitude(m)": 711059.3715121291,
        "Argument of Periapsis(deg)": 0.0071338127432032696,
        "Eccentricity": 0.0,
        "Inclination(deg)": 45.0,
        "Latitude(deg)": -28.329590558576495,
        "Longitude(deg)": -157.8996700306547,
        "Mean Anomaly(deg)": -41.86746431026193,
        "RAAN(deg)": 334.9932658892973,
        "Satellite Name": "Constellation 1 1493",
        "Satellite Number": 1493,
        "Semi-Major Axis(m)": 7083131.272910544,
        "Time(s)": 119
    },
    {
        "Altitude(m)": 711045.5494060306,
        "Argument of Periapsis(deg)": 0.007193760749448674,
        "Eccentricity": 0.0,
        "Inclination(deg)": 45.0,
        "Latitude(deg)": -28.293240718982567,
        "Longitude(deg)": -157.8486576195556,
        "Mean Anomaly(deg)": -41.80676317001204,
        "RAAN(deg)": 334.9932093001317,
        "Satellite Name": "Constellation 1 1493",
        "Satellite Number": 1493,
        "Semi-Major Axis(m)": 7083131.272910544,
        "Time(s)": 120
    },
    {
        "Altitude(m)": 711031.7255195719,
        "Argument of Periapsis(deg)": 0.007253708755694079,
        "Eccentricity": 0.0,
        "Inclination(deg)": 45.0,
        "Latitude(deg)": -28.256868377358543,
        "Longitude(deg)": -157.79768251175702,
        "Mean Anomaly(deg)": -41.74606202976216,
        "RAAN(deg)": 334.9931527109661,
        "Satellite Name": "Constellation 1 1493",
        "Satellite Number": 1493,
        "Semi-Major Axis(m)": 7083131.272910544,
        "Time(s)": 121
    },
    {
        "Altitude(m)": 711017.8999007645,
        "Argument of Periapsis(deg)": 0.0073136567619394854,
        "Eccentricity": 0.0,
        "Inclination(deg)": 45.0,
        "Latitude(deg)": -28.22047358212407,
        "Longitude(deg)": -157.74674464804255,
        "Mean Anomaly(deg)": -41.68536088951222,
        "RAAN(deg)": 334.9930961218006,
        "Satellite Name": "Constellation 1 1493",
        "Satellite Number": 1493,
        "Semi-Major Axis(m)": 7083131.272910544,
        "Time(s)": 122
    },
    {
        "Altitude(m)": 711004.0725976143,
        "Argument of Periapsis(deg)": 0.0073736047681848904,
        "Eccentricity": 0.0,
        "Inclination(deg)": 45.0,
        "Latitude(deg)": -28.184056381629723,
        "Longitude(deg)": -157.69584396916665,
        "Mean Anomaly(deg)": -41.624659749262385,
        "RAAN(deg)": 334.99303953263495,
        "Satellite Name": "Constellation 1 1493",
        "Satellite Number": 1493,
        "Semi-Major Axis(m)": 7083131.272910544,
        "Time(s)": 123
    },
    {
        "Altitude(m)": 710990.2436581317,
        "Argument of Periapsis(deg)": 0.007433552774430298,
        "Eccentricity": 0.0,
        "Inclination(deg)": 45.0,
        "Latitude(deg)": -28.147616824156604,
        "Longitude(deg)": -157.64498041585435,
        "Mean Anomaly(deg)": -41.563958609012445,
        "RAAN(deg)": 334.99298294346943,
        "Satellite Name": "Constellation 1 1493",
        "Satellite Number": 1493,
        "Semi-Major Axis(m)": 7083131.272910544,
        "Time(s)": 124
    },
    {
        "Altitude(m)": 710976.4131303071,
        "Argument of Periapsis(deg)": 0.007493500780675703,
        "Eccentricity": 0.0,
        "Inclination(deg)": 45.0,
        "Latitude(deg)": -28.111154957916973,
        "Longitude(deg)": -157.59415392880274,
        "Mean Anomaly(deg)": -41.503257468762556,
        "RAAN(deg)": 334.99292635430385,
        "Satellite Name": "Constellation 1 1493",
        "Satellite Number": 1493,
        "Semi-Major Axis(m)": 7083131.272910544,
        "Time(s)": 125
    },
    {
        "Altitude(m)": 710962.5810621446,
        "Argument of Periapsis(deg)": 0.007553448786921108,
        "Eccentricity": 0.0,
        "Inclination(deg)": 45.0,
        "Latitude(deg)": -28.07467083105344,
        "Longitude(deg)": -157.54336461677784,
        "Mean Anomaly(deg)": -41.44255632851267,
        "RAAN(deg)": 334.99286976513827,
        "Satellite Name": "Constellation 1 1493",
        "Satellite Number": 1493,
        "Semi-Major Axis(m)": 7083131.272910544,
        "Time(s)": 126
    },
    {
        "Altitude(m)": 710948.7475016264,
        "Argument of Periapsis(deg)": 0.007613396793166514,
        "Eccentricity": 0.0,
        "Inclination(deg)": 45.0,
        "Latitude(deg)": -28.038164491640664,
        "Longitude(deg)": -157.49261208422683,
        "Mean Anomaly(deg)": -41.38185518826284,
        "RAAN(deg)": 334.9928131759727,
        "Satellite Name": "Constellation 1 1493",
        "Satellite Number": 1493,
        "Semi-Major Axis(m)": 7083131.272910544,
        "Time(s)": 127
    },
    {
        "Altitude(m)": 710934.9124967355,
        "Argument of Periapsis(deg)": 0.007673344799411918,
        "Eccentricity": 0.0,
        "Inclination(deg)": 45.0,
        "Latitude(deg)": -28.00163598768333,
        "Longitude(deg)": -157.44189643986132,
        "Mean Anomaly(deg)": -41.32115404801285,
        "RAAN(deg)": 334.9927565868071,
        "Satellite Name": "Constellation 1 1493",
        "Satellite Number": 1493,
        "Semi-Major Axis(m)": 7083131.272910544,
        "Time(s)": 128
    },
    {
        "Altitude(m)": 710921.0760954514,
        "Argument of Periapsis(deg)": 0.007733292805657325,
        "Eccentricity": 0.0,
        "Inclination(deg)": 45.0,
        "Latitude(deg)": -27.9650853671177,
        "Longitude(deg)": -157.39121762426961,
        "Mean Anomaly(deg)": -41.26045290776291,
        "RAAN(deg)": 334.9926999976416,
        "Satellite Name": "Constellation 1 1493",
        "Satellite Number": 1493,
        "Semi-Major Axis(m)": 7083131.272910544,
        "Time(s)": 129
    },
    {
        "Altitude(m)": 710907.2383457473,
        "Argument of Periapsis(deg)": 0.00779324081190273,
        "Eccentricity": 0.0,
        "Inclination(deg)": 45.0,
        "Latitude(deg)": -27.928512677811213,
        "Longitude(deg)": -157.34057557801395,
        "Mean Anomaly(deg)": -41.19975176751308,
        "RAAN(deg)": 334.992643408476,
        "Satellite Name": "Constellation 1 1493",
        "Satellite Number": 1493,
        "Semi-Major Axis(m)": 7083131.272910544,
        "Time(s)": 130
    },
    {
        "Altitude(m)": 710893.3992955827,
        "Argument of Periapsis(deg)": 0.007853188818148135,
        "Eccentricity": 0.0,
        "Inclination(deg)": 45.0,
        "Latitude(deg)": -27.891917967562442,
        "Longitude(deg)": -157.28997024163115,
        "Mean Anomaly(deg)": -41.13905062726319,
        "RAAN(deg)": 334.9925868193104,
        "Satellite Name": "Constellation 1 1493",
        "Satellite Number": 1493,
        "Semi-Major Axis(m)": 7083131.272910544,
        "Time(s)": 131
    },
    {
        "Altitude(m)": 710879.558992924,
        "Argument of Periapsis(deg)": 0.007913136824393542,
        "Eccentricity": 0.0,
        "Inclination(deg)": 45.0,
        "Latitude(deg)": -27.855301284101373,
        "Longitude(deg)": -157.23940155563292,
        "Mean Anomaly(deg)": -41.0783494870132,
        "RAAN(deg)": 334.99253023014484,
        "Satellite Name": "Constellation 1 1493",
        "Satellite Number": 1493,
        "Semi-Major Axis(m)": 7083131.272910544,
        "Time(s)": 132
    }
]